CCSDS_OMM_VERS = 2.0
CREATION_DATE  = 
ORIGINATOR     = 

OBJECT_NAME    = SL-3 R/B
OBJECT_ID      = 1982-079B
CENTER_NAME    = EARTH
REF_FRAME      = TEME
TIME_SYSTEM    = UTC
MEAN_ELEMENT_THEORY = SGP/SGP4

EPOCH          = 2025-12-01T18:40:31.176768
MEAN_MOTION    = 15.23390805
ECCENTRICITY   = .0026592
INCLINATION    = 81.1458
RA_OF_ASC_NODE = 308.5812
ARG_OF_PERICENTER = 134.2964
MEAN_ANOMALY   = 226.0456

EPHEMERIS_TYPE = 0
CLASSIFICATION_TYPE = U
NORAD_CAT_ID   = 13403
ELEMENT_SET_NO = 999
REV_AT_EPOCH   = 36278
BSTAR          = .24177E-3
MEAN_MOTION_DOT = .5833E-4
MEAN_MOTION_DDOT = 0

CCSDS_OMM_VERS = 2.0
CREATION_DATE  = 
ORIGINATOR     = 

OBJECT_NAME    = SL-14 R/B
OBJECT_ID      = 1982-092B
CENTER_NAME    = EARTH
REF_FRAME      = TEME
TIME_SYSTEM    = UTC
MEAN_ELEMENT_THEORY = SGP/SGP4

EPOCH          = 2025-12-01T11:03:04.441248
MEAN_MOTION    = 14.86536791
ECCENTRICITY   = .0018817
INCLINATION    = 82.5689
RA_OF_ASC_NODE = 233.2593
ARG_OF_PERICENTER = 267.3328
MEAN_ANOMALY   = 266.0528

EPHEMERIS_TYPE = 0
CLASSIFICATION_TYPE = U
NORAD_CAT_ID   = 13553
ELEMENT_SET_NO = 999
REV_AT_EPOCH   = 31433
BSTAR          = .69853E-4
MEAN_MOTION_DOT = .644E-5
MEAN_MOTION_DDOT = 0

CCSDS_OMM_VERS = 2.0
CREATION_DATE  = 
ORIGINATOR     = 

OBJECT_NAME    = SL-3 R/B
OBJECT_ID      = 1983-010B
CENTER_NAME    = EARTH
REF_FRAME      = TEME
TIME_SYSTEM    = UTC
MEAN_ELEMENT_THEORY = SGP/SGP4

EPOCH          = 2025-12-01T19:32:25.495008
MEAN_MOTION    = 15.43011851
ECCENTRICITY   = .0017686
INCLINATION    = 81.1024
RA_OF_ASC_NODE = 121.9499
ARG_OF_PERICENTER = 29.0096
MEAN_ANOMALY   = 331.2126

EPHEMERIS_TYPE = 0
CLASSIFICATION_TYPE = U
NORAD_CAT_ID   = 13819
ELEMENT_SET_NO = 999
REV_AT_EPOCH   = 34283
BSTAR          = .33237E-3
MEAN_MOTION_DOT = .14773E-3
MEAN_MOTION_DDOT = 0

CCSDS_OMM_VERS = 2.0
CREATION_DATE  = 
ORIGINATOR     = 

OBJECT_NAME    = SL-3 R/B
OBJECT_ID      = 1983-075B
CENTER_NAME    = EARTH
REF_FRAME      = TEME
TIME_SYSTEM    = UTC
MEAN_ELEMENT_THEORY = SGP/SGP4

EPOCH          = 2025-12-01T18:39:20.347776
MEAN_MOTION    = 15.35795224
ECCENTRICITY   = .0021559
INCLINATION    = 97.6101
RA_OF_ASC_NODE = 331.8962
ARG_OF_PERICENTER = 215.7475
MEAN_ANOMALY   = 144.2326

EPHEMERIS_TYPE = 0
CLASSIFICATION_TYPE = U
NORAD_CAT_ID   = 14208
ELEMENT_SET_NO = 999
REV_AT_EPOCH   = 31511
BSTAR          = .31026E-3
MEAN_MOTION_DOT = .10803E-3
MEAN_MOTION_DDOT = 0

CCSDS_OMM_VERS = 2.0
CREATION_DATE  = 
ORIGINATOR     = 

OBJECT_NAME    = COSMOS 1536
OBJECT_ID      = 1984-013A
CENTER_NAME    = EARTH
REF_FRAME      = TEME
TIME_SYSTEM    = UTC
MEAN_ELEMENT_THEORY = SGP/SGP4

EPOCH          = 2025-12-01T15:11:12.662016
MEAN_MOTION    = 15.22332683
ECCENTRICITY   = .0013264
INCLINATION    = 82.5469
RA_OF_ASC_NODE = 205.1769
ARG_OF_PERICENTER = 269.2388
MEAN_ANOMALY   = 90.7329

EPHEMERIS_TYPE = 0
CLASSIFICATION_TYPE = U
NORAD_CAT_ID   = 14699
ELEMENT_SET_NO = 999
REV_AT_EPOCH   = 25769
BSTAR          = .23848E-3
MEAN_MOTION_DOT = .5541E-4
MEAN_MOTION_DDOT = 0

CCSDS_OMM_VERS = 2.0
CREATION_DATE  = 
ORIGINATOR     = 

OBJECT_NAME    = SL-14 R/B
OBJECT_ID      = 1984-027B
CENTER_NAME    = EARTH
REF_FRAME      = TEME
TIME_SYSTEM    = UTC
MEAN_ELEMENT_THEORY = SGP/SGP4

EPOCH          = 2025-12-01T17:07:15.542112
MEAN_MOTION    = 14.85854735
ECCENTRICITY   = .0016602
INCLINATION    = 82.5409
RA_OF_ASC_NODE = 336.8978
ARG_OF_PERICENTER = 300.7704
MEAN_ANOMALY   = 59.1877

EPHEMERIS_TYPE = 0
CLASSIFICATION_TYPE = U
NORAD_CAT_ID   = 14820
ELEMENT_SET_NO = 999
REV_AT_EPOCH   = 23308
BSTAR          = .67924E-4
MEAN_MOTION_DOT = .616E-5
MEAN_MOTION_DDOT = 0

CCSDS_OMM_VERS = 2.0
CREATION_DATE  = 
ORIGINATOR     = 

OBJECT_NAME    = SL-8 R/B
OBJECT_ID      = 1985-006B
CENTER_NAME    = EARTH
REF_FRAME      = TEME
TIME_SYSTEM    = UTC
MEAN_ELEMENT_THEORY = SGP/SGP4

EPOCH          = 2025-12-01T16:42:32.668416
MEAN_MOTION    = 14.37710153
ECCENTRICITY   = .0018204
INCLINATION    = 74.0462
RA_OF_ASC_NODE = 81.4521
ARG_OF_PERICENTER = 16.6851
MEAN_ANOMALY   = 88.5447

EPHEMERIS_TYPE = 0
CLASSIFICATION_TYPE = U
NORAD_CAT_ID   = 15483
ELEMENT_SET_NO = 999
REV_AT_EPOCH   = 13994
BSTAR          = .11166E-3
MEAN_MOTION_DOT = .31E-5
MEAN_MOTION_DDOT = 0

CCSDS_OMM_VERS = 2.0
CREATION_DATE  = 
ORIGINATOR     = 

OBJECT_NAME    = SL-12 R/B(2)
OBJECT_ID      = 1985-042D
CENTER_NAME    = EARTH
REF_FRAME      = TEME
TIME_SYSTEM    = UTC
MEAN_ELEMENT_THEORY = SGP/SGP4

EPOCH          = 2025-12-01T08:37:50.107008
MEAN_MOTION    = 14.21945988
ECCENTRICITY   = .0037673
INCLINATION    = 71.1080
RA_OF_ASC_NODE = 295.4615
ARG_OF_PERICENTER = 278.1294
MEAN_ANOMALY   = 193.9688

EPHEMERIS_TYPE = 0
CLASSIFICATION_TYPE = U
NORAD_CAT_ID   = 15772
ELEMENT_SET_NO = 999
REV_AT_EPOCH   = 10041
BSTAR          = .7485E-4
MEAN_MOTION_DOT = .119E-5
MEAN_MOTION_DDOT = 0

CCSDS_OMM_VERS = 2.0
CREATION_DATE  = 
ORIGINATOR     = 

OBJECT_NAME    = SL-14 R/B
OBJECT_ID      = 1985-069B
CENTER_NAME    = EARTH
REF_FRAME      = TEME
TIME_SYSTEM    = UTC
MEAN_ELEMENT_THEORY = SGP/SGP4

EPOCH          = 2025-12-01T19:05:10.552128
MEAN_MOTION    = 14.86301967
ECCENTRICITY   = .0019463
INCLINATION    = 82.5255
RA_OF_ASC_NODE = 116.9915
ARG_OF_PERICENTER = 152.8830
MEAN_ANOMALY   = 207.3408

EPHEMERIS_TYPE = 0
CLASSIFICATION_TYPE = U
NORAD_CAT_ID   = 15945
ELEMENT_SET_NO = 999
REV_AT_EPOCH   = 15829
BSTAR          = .77659E-4
MEAN_MOTION_DOT = .71E-5
MEAN_MOTION_DDOT = 0

CCSDS_OMM_VERS = 2.0
CREATION_DATE  = 
ORIGINATOR     = 

OBJECT_NAME    = SL-16 R/B
OBJECT_ID      = 1985-097B
CENTER_NAME    = EARTH
REF_FRAME      = TEME
TIME_SYSTEM    = UTC
MEAN_ELEMENT_THEORY = SGP/SGP4

EPOCH          = 2025-12-01T11:47:07.145088
MEAN_MOTION    = 14.16582040
ECCENTRICITY   = .0006003
INCLINATION    = 71.0034
RA_OF_ASC_NODE = 347.2858
ARG_OF_PERICENTER = 28.9178
MEAN_ANOMALY   = 81.7419

EPHEMERIS_TYPE = 0
CLASSIFICATION_TYPE = U
NORAD_CAT_ID   = 16182
ELEMENT_SET_NO = 999
REV_AT_EPOCH   = 7332
BSTAR          = -.68175E-4
MEAN_MOTION_DOT = -.184E-5
MEAN_MOTION_DDOT = 0

CCSDS_OMM_VERS = 2.0
CREATION_DATE  = 
ORIGINATOR     = 

OBJECT_NAME    = SL-14 R/B
OBJECT_ID      = 1986-006B
CENTER_NAME    = EARTH
REF_FRAME      = TEME
TIME_SYSTEM    = UTC
MEAN_ELEMENT_THEORY = SGP/SGP4

EPOCH          = 2025-12-01T19:06:31.358592
MEAN_MOTION    = 14.86647230
ECCENTRICITY   = .0075428
INCLINATION    = 82.5268
RA_OF_ASC_NODE = 351.8492
ARG_OF_PERICENTER = 236.5684
MEAN_ANOMALY   = 122.8305

EPHEMERIS_TYPE = 0
CLASSIFICATION_TYPE = U
NORAD_CAT_ID   = 16496
ELEMENT_SET_NO = 999
REV_AT_EPOCH   = 13466
BSTAR          = .83275E-4
MEAN_MOTION_DOT = .804E-5
MEAN_MOTION_DDOT = 0

CCSDS_OMM_VERS = 2.0
CREATION_DATE  = 
ORIGINATOR     = 

OBJECT_NAME    = COSMOS 1743
OBJECT_ID      = 1986-034A
CENTER_NAME    = EARTH
REF_FRAME      = TEME
TIME_SYSTEM    = UTC
MEAN_ELEMENT_THEORY = SGP/SGP4

EPOCH          = 2025-12-01T15:03:03.525696
MEAN_MOTION    = 15.51293975
ECCENTRICITY   = .0004997
INCLINATION    = 82.5351
RA_OF_ASC_NODE = 176.1266
ARG_OF_PERICENTER = 302.5618
MEAN_ANOMALY   = 57.5151

EPHEMERIS_TYPE = 0
CLASSIFICATION_TYPE = U
NORAD_CAT_ID   = 16719
ELEMENT_SET_NO = 999
REV_AT_EPOCH   = 16501
BSTAR          = .39331E-3
MEAN_MOTION_DOT = .23145E-3
MEAN_MOTION_DDOT = 0

