SL-3 R/B                
1 13403U 82079B   25335.77813862  .00005833  00000+0  24177-3 0  9999
2 13403  81.1458 308.5812 0026592 134.2964 226.0456 15.23390805362787
SL-14 R/B               
1 13553U 82092B   25335.46046807  .00000644  00000+0  69853-4 0  9999
2 13553  82.5689 233.2593 0018817 267.3328 266.0528 14.86536791314333
SL-3 R/B                
1 13819U 83010B   25335.81418397  .00014773  00000+0  33237-3 0  9995
2 13819  81.1024 121.9499 0017686  29.0096 331.2126 15.43011851342836
SL-3 R/B                
1 14208U 83075B   25335.77731884  .00010803  00000+0  31026-3 0  9997
2 14208  97.6101 331.8962 0021559 215.7475 144.2326 15.35795224315112
COSMOS 1536             
1 14699U 84013A   25335.63278544  .00005541  00000+0  23848-3 0  9994
2 14699  82.5469 205.1769 0013264 269.2388  90.7329 15.22332683257693
SL-14 R/B               
1 14820U 84027B   25335.71337433  .00000616  00000+0  67924-4 0  9999
2 14820  82.5409 336.8978 0016602 300.7704  59.1877 14.85854735233088
SL-8 R/B                
1 15483U 85006B   25335.69621144  .00000310  00000+0  11166-3 0  9992
2 15483  74.0462  81.4521 0018204  16.6851  88.5447 14.37710153139943
SL-12 R/B(2)            
1 15772U 85042D   25335.35960772  .00000119  00000+0  74850-4 0  9996
2 15772  71.1080 295.4615 0037673 278.1294 193.9688 14.21945988100413
SL-14 R/B               
1 15945U 85069B   25335.79526102  .00000710  00000+0  77659-4 0  9997
2 15945  82.5255 116.9915 0019463 152.8830 207.3408 14.86301967158299
SL-16 R/B               
1 16182U 85097B   25335.49105492 -.00000184  00000+0 -68175-4 0  9994
2 16182  71.0034 347.2858 0006003  28.9178  81.7419 14.16582040 73322
SL-14 R/B               
1 16496U 86006B   25335.79619628  .00000804  00000+0  83275-4 0  9992
2 16496  82.5268 351.8492 0075428 236.5684 122.8305 14.86647230134663
COSMOS 1743             
1 16719U 86034A   25335.62712414  .00023145  00000+0  39331-3 0  9996
2 16719  82.5351 176.1266 0004997 302.5618  57.5151 15.51293975165017
